[{"OBJECT_NAME":"STARLINK-3740","OBJECT_ID":"2022-041E","EPOCH":"2026-03-09T08:57:39.244032","MEAN_MOTION":15.08836306,"ECCENTRICITY":0.00016619,"INCLINATION":53.2176,"RA_OF_ASC_NODE":110.5426,"ARG_OF_PERICENTER":91.1426,"MEAN_ANOMALY":268.9756,"EPHEMERIS_TYPE":0,"CLASSIFICATION_TYPE":"U","NORAD_CAT_ID":52265,"ELEMENT_SET_NO":999,"REV_AT_EPOCH":21431,"BSTAR":-1.3867938e-5,"MEAN_MOTION_DOT":-5.09e-6,"MEAN_MOTION_DDOT":0},{"OBJECT_NAME":"ELECTRON KICK STAGE R\/B","OBJECT_ID":"2023-035A","EPOCH":"2026-03-09T00:22:03.988416","MEAN_MOTION":15.09409521,"ECCENTRICITY":0.00017263,"INCLINATION":44.1756,"RA_OF_ASC_NODE":311.3301,"ARG_OF_PERICENTER":9.8979,"MEAN_ANOMALY":350.1918,"EPHEMERIS_TYPE":0,"CLASSIFICATION_TYPE":"U","NORAD_CAT_ID":55908,"ELEMENT_SET_NO":999,"REV_AT_EPOCH":16322,"BSTAR":0.00066616987,"MEAN_MOTION_DOT":0.00010608,"MEAN_MOTION_DDOT":0}]
